store_name,license_id,square_feet,buffer_size,address,zip_code,census_tract,census_block,latitude,longitude
200 LIQUORS,48663,5000,B,204 E 47TH ST,60653,17031381500,170313815001007,41.8094238941,-87.6209518020
3600 COMMISSARY,24279,3800,B,3600 N LAKE SHORE DR,60613,17031060900,170310609004001,41.9486836744,-87.6436497585
4343 PETES FRESH MARKET,1336669,57000,A,4343 S PULASKI RD,60632,17031570100,170315701001015,41.8139143113,-87.7236649419
4700 PETE'S FRESH MARKET,1243125,45000,A,4700 S KEDZIE AVE,60632,17031842800,170318428004023,41.8080472717,-87.7041188223
5659 W. DIVERSEY,1575023,4000,B,5659 W DIVERSEY AVE,60639,17031190602,170311906022001,41.9311354035,-87.7686121306
"7400 S HALSTED FOOD AND LIQUORS, INC.",980,10001,A,7400 S HALSTED ST,60621,17031681300,170316813003005,41.7596745819,-87.6444202389
79 FOOD BASKET,1958784,3000,B,1351 W 79TH ST,60620,17031710700,170317107001012,41.7503211206,-87.6581890529
AARAY GROCERY,1900,10001,A,2601 N HALSTED ST,60614,17031070200,170310702001009,41.9292098170,-87.6487462650
A & B FOOD MARKET INC,43181,10001,A,5057 W DIVISION ST,60651,17031251100,170312511004000,41.9021664421,-87.7531823487
ADA FOODS,50473,4500,B,1281 W 71ST ST,60636,17031671800,170316718001000,41.7648941814,-87.6573078048
ADAMS FOOD MART,1817376,2500,B,559 N LARAMIE AVE,60644,17031251600,170312516003011,41.8910335471,-87.7553096457
A & G LIQUORS,44373,4800,B,6945 S STATE ST,60637,17031690400,170316904003005,41.7678312792,-87.6247659397
AL BAYAN GROCERY INC.,1542202,2500,B,3134 N NARRAGANSETT AVE,60634,17031831500,170318315001015,41.9375646502,-87.7860543686
ALDI,1922075,16615,A,6621 S COTTAGE GROVE AVE,60637,17031420800,170314208002008,41.7743058812,-87.6056480253
ALDI,1959623,15680,A,6221 N BROADWAY,60660,17031030103,170310301031003,41.9952114602,-87.6602779929
ALDI #28,1519765,15154,A,4934 S KEDZIE AVE,60632,17031630300,170316303002000,41.8034457131,-87.7039862718
ALDI #30,1547427,15154,A,3030 S KEDZIE AVE,60623,17031840800,170318408002012,41.8381141517,-87.7049944648
ALDI #32,1975885,16924,A,1840 N CLYBOURN AVE,60614,17031832600,170318326002019,41.9144237141,-87.6546278430
ALDI #70,1997726,18263,A,7627 S ASHLAND AVE,60620,17031710300,170317103001013,41.7549909175,-87.6634041558
ALDI #79,1515471,15150,A,7800 S SOUTH CHICAGO AVE,60619,17031834300,170318343002003,41.7527456405,-87.5875234853
ALDI FOODS #91,13994,15565,A,3835 W MADISON ST,60624,17031260800,170312608001000,41.8806594115,-87.7221936689
ALDI FOODS -STORE #04,13988,12500,A,800 N KEDZIE AVE,60651,17031836600,170318366001013,41.8956153135,-87.7067053251
ALDI FOODS STORE #2,14004,15600,A,4645 W DIVERSEY AVE,60639,17031190900,170311909001000,41.9314609382,-87.7437173070
ALDI FOODS STORE #26,13998,15540,A,2600 N CLYBOURN AVE,60614,17031070700,170310707002008,41.9286950012,-87.6741950831
ALDI FOODS-STORE #27,13986,12300,A,3363 N MILWAUKEE AVE,60641,17031161300,170311613002008,41.9423835134,-87.7290108595
ALDI FOODS STORE #30,14000,14860,A,4030 W WRIGHTWOOD AVE,60639,17031220702,170312207022005,41.9282078544,-87.7281585580
ALDI FOODS STORE #90B,13992,15565,A,2828 N CENTRAL AVE,60634,17031190402,170311904022031,41.9321576791,-87.7664245988
ALDI INC #06,13978,14000,A,5001 N PULASKI RD,60630,17031140302,170311403023005,41.9719812207,-87.7279868979
ALDI INC #10,14002,15540,A,4501 S PULASKI RD,60632,17031570100,170315701001024,41.8114515422,-87.7235746544
ALDI INC #53,13964,13981,A,5775 S ARCHER AVE,60638,17031560700,170315607002042,41.7963804895,-87.7573475722
ALDI INC #58,13974,12571,A,2431 W MONTROSE AVE,60618,17031050300,170310503001001,41.9611940986,-87.6899669704
ALDI INC # 62,13984,12646,A,6220 N CALIFORNIA AVE,60659,17031020702,170310207022006,41.9946209588,-87.6996868624
ALDI INC #64,13976,11760,A,1767 N MILWAUKEE AVE,60647,17031831000,170318310001003,41.9135877900,-87.6822028354
ALDI INC #83,13990,16300,A,8333 S CICERO AVE,60652,17031700302,170317003023005,41.7409110654,-87.7409228594
ALDI INC #92,13996,19410,A,620 W 63RD ST,60621,17031680900,170316809004003,41.7799200473,-87.6409255107
ALDI INC.#94,14010,10001,A,6025 S WESTERN AVE,60636,17031835000,170318350001001,41.7839658423,-87.6836233778
ALDI INC. #96,1868821,16117,A,821 W 115TH ST,60643,17031530300,170315303001000,41.6849606404,-87.6430223096
ALDI INC STORE 14,1242812,15000,A,5629 W FILLMORE ST,60644,17031831400,170318314002056,41.8673156479,-87.7655979430
ALDI INC STORE #16,1226990,20848,A,1246 E 87TH ST,60619,17031834300,170318343005004,41.7369153460,-87.5936566218
ALDI INC STORE #62,14006,9495,B,1739 W CERMAK RD,60608,17031843200,170318432002043,41.8521511995,-87.6700746019
ALDI INC STORE #90,14008,16340,A,9017 S HALSTED ST,60620,17031711500,170317115002037,41.7302972736,-87.6433090924
ALDI INC STORE #95,14011,37000,A,2333 E 95TH ST,60617,17031510300,170315103001005,41.7224662420,-87.5666730521
ALDI'S,1817903,15255,A,4500 N BROADWAY,60640,17031830700,170318307004004,41.9637889643,-87.6566064924
ALDI'S,1817904,11179,A,6520 W FULLERTON AVE,60707,17031831500,170318315001045,41.9237604017,-87.7887477626
ALDI'S #08,1743166,16890,A,7333 S STATE ST,60619,17031691000,170316910003005,41.7608808720,-87.6246657846
ALDI'S # 26,1821323,16550,A,10532 S INDIANAPOLIS AVE,60617,17031520100,170315201001079,41.7036623609,-87.5257124268
ALDI'S #47,1619769,16370,A,1508 W 47TH ST,60609,17031842600,170318426002057,41.8087413884,-87.6629116285
ALDI'S #93,1743165,16890,A,7545 S WESTERN AVE,60620,17031700100,170317001002053,41.7560350910,-87.6828583216
ALDI'S FOODS BELMONT,1975886,18600,A,3320 W BELMONT AVE,60618,17031831100,170318311001026,41.9394051879,-87.7109005918
ALLA'S FOOD,1068956,3500,B,2024 E 93RD ST,60617,17031480400,170314804004023,41.7262403487,-87.5742922611
ALL STAR FOOD & LIQUOR,1922124,4200,B,2911 S ARCHER AVE,60608,17031600700,170316007001000,41.8414840391,-87.6580219776
ALMUFLIHI FOOD & LIQUOR,62800,4500,B,5404 S HALSTED ST,60609,17031612100,170316121001039,41.7958707987,-87.6453441182
AM-PM FOOD MART & CELLULAR,1093813,3500,B,1924 E 87TH ST,60617,17031450300,170314503003028,41.7371462539,-87.5770809934
ANAR INC,31219,10001,A,935 E 79TH ST,60619,17031440101,170314401011006,41.7512179339,-87.6014014102
ANDYS FRUIT RANCH,1275209,15000,A,4733 N KEDZIE AVE,60625,17031140800,170311408005008,41.9676291597,-87.7083036873
A & R FOOD MART,1954411,3500,B,5952 W GRAND AVE,60639,17031191302,170311913021018,41.9205964582,-87.7751926809
A & R FOOD MART,9125,2500,B,5952 W GRAND AVE,60639,17031191302,170311913021018,41.9205964582,-87.7751926809
ARISTA FOODS,1473367,10000,A,112 N MAY ST,60607,17031833000,170318330002084,41.8834021216,-87.6557252931
ARMITAGE PRODUCE INC,1771323,14340,A,2007 N KIMBALL AVE,60647,17031221100,170312211002029,41.9175624189,-87.7117551087
AROUND THE CLOCK,15860,3000,B,1605 W HOWARD ST,60626,17031010202,170310102021000,42.0192651821,-87.6715720734
ASHLAND FOOD AND LIQUORS,11636,10001,A,1554 W 95TH ST,60643,17031730201,170317302011018,41.7213269867,-87.6625336585
ATHENS GROCERY,971,2600,B,324 S HALSTED ST,60661,17031833100,170318331001028,41.8771621281,-87.6473642897
AVENUE FOOD MAR INC,1246771,18000,A,6850 W BELMONT AVE,60634,17031171000,170311710003022,41.9382373760,-87.7977603483
AWAMI BAZAAR & ZABIHA MEAT,68226,2500,B,2340 W DEVON AVE,60659,17031020500,170310205002005,41.9978536894,-87.6890642657
Baltimore Food & Liquor,1446831,3404,B,13322 S BALTIMORE AVE,60633,17031550100,170315501004012,41.6529646117,-87.5472986528
BARI,1245246,2500,B,1120 W GRAND AVE,60622,17031243500,170312435001021,41.8912101212,-87.6555602414
BERBATE FRUIT MARKET,1646036,2500,B,3956 N NARRAGANSETT AVE,60634,17031170300,170311703001000,41.9527315616,-87.7866984426
B & H FOOD & GROCERY,6068,4500,B,713 S ALBANY AVE,60612,17031837300,170318373001010,41.8723500430,-87.7032726418
BIG APPLE FINER FOODS INC,4900,9000,B,2345 N CLARK ST,60614,17031071400,170310714003003,41.9249661791,-87.6399260190
BOB'S LIQUORS & GROCERIES,957,10001,A,5069 W MADISON ST,60644,17031252201,170312522011000,41.8802960895,-87.7524941982
BOCKWINKELS,1491357,7200,B,222 N COLUMBUS DR,60601,17031320100,170313201002032,41.8863394160,-87.6208361500
BOULEVARD FOOD & LIQUOR LLC,1931999,3350,B,5922 W IRVING PARK RD,60634,17031150402,170311504022018,41.9531825896,-87.7752593753
BROADWAY SUPERMARKET,50737,15000,A,4879 N BROADWAY,60640,17031031200,170310312002005,41.9711711808,-87.6595809750
BUDGET FINER FOODS,1337515,3200,B,6604 N SHERIDAN RD,60626,17031010502,170310105021006,42.0027261067,-87.6609383664
BURNHAM PLAZA MART,2014232,2950,B,828 S WABASH AVE,60605,17031320600,170313206002012,41.8714441963,-87.6260751303
BUSY BEE SUPERMARKET,1974525,2500,B,5659 S ASHLAND AVE,60636,17031670200,170316702001016,41.7904800194,-87.6643450657
BUY -N- SAVE,62460,8000,B,209 E 103RD ST,60628,17031490902,170314909022003,41.7071353216,-87.6182417299
CAESAR'S FOODS INC,13670,10001,A,901 N DAMEN AVE,60622,17031242200,170312422002006,41.8977792769,-87.6769588663
"CALABRIA IMPORTS, INC.",1357606,3100,B,1905 W 103RD ST,60643,17031720700,170317207001004,41.7064733245,-87.6693549885
"CALMA OPTIMAL DELI, INC.",1991322,3000,B,5155 W ADDISON ST,60641,17031151001,170311510011000,41.9458951009,-87.7566458523
CARNICERIA DEL RIO,1801493,3000,B,2714 W CERMAK RD,60608,17031840700,170318407003012,41.8520347381,-87.6936969081
CARNICERIA EL PORVENIR,1768971,2500,B,150 E KENSINGTON AVE,60628,17031530100,170315301001016,41.6840631980,-87.6187429679
CARNICERIA&FRUTERIA EL MITOTE,49322,4500,B,4459 W BELMONT AVE,60641,17031200100,170312001003000,41.9388195147,-87.7394338028
CARNICERIA GUANAJUATO,2069477,9325,B,5250 W FULLERTON AVE,60639,17031190702,170311907023020,41.9241891458,-87.7582297412
CARNICERIA GUANAJUATO #3,2060960,9000,B,3132 N CALIFORNIA AVE,60618,17031210800,170312108001001,41.9385697153,-87.6979459455
CARNICERIA GUANJUATO #3,17340,8800,B,1436 N ASHLAND AVE,60622,17031241500,170312415002000,41.9081153739,-87.6677638335
CARNICERIA JIMENEZ #2,48081,19000,A,3850 W FULLERTON AVE,60647,17031220701,170312207013015,41.9246283205,-87.7239533210
CARNICERIA JIMENEZ INC,1693,16000,A,4204 W NORTH AVE,60639,17031230500,170312306004000,41.9099252471,-87.7315572163
CARNICERIA LA AZTECA,1354069,2500,B,7067 N CLARK ST,60626,17031010702,170310107021002,42.0109629527,-87.6742146577
CARNICERIA LA GLORIA,1471030,6500,B,2551 W 51ST ST,60632,17031630500,170316305001004,41.8009692763,-87.6887220987
"CARNICERIA LA GLORIA NO. 2, INC.",1514813,7500,B,2744 W 55TH ST,60632,17031630500,170316305003017,41.7938118263,-87.6931506024
"CARNICERIA LA HACIENDA, INC.",1492826,4000,B,3459 W 59TH ST,60629,17031660400,170316604004000,41.7860244010,-87.7106047774
"CARNICERIA LA MEJOR PRODUCE, INC.",1800292,4500,B,2915 N MILWAUKEE AVE,60618,17031210602,170312106023005,41.9343143994,-87.7157719991
CARNICERIA LA VILLA #2,2060542,3289,B,5800 W GRAND AVE,60639,17031191302,170311913021021,41.9197749010,-87.7707265258
CARNICERIA RICARDO,35191,5000,B,4419 W DIVERSEY AVE,60639,17031200200,170312002004000,41.9315407469,-87.7375725127
CENTRAL PARK FOODS INC,13813,8000,B,3604 W GRAND AVE,60651,17031231200,170312312001000,41.9024736738,-87.7168174653
CENTRO MARKET,66257,9100,B,5153 S KEDZIE AVE,60632,17031630400,170316304004004,41.7992570437,-87.7035747066
CERMAK PRODUCE,1515206,25000,A,5220 S PULASKI RD,60632,17031620200,170316202001000,41.7979918700,-87.7234437408
CERMAK PRODUCE,1476654,29000,A,4234 N KEDZIE AVE,60618,17031160501,170311605011009,41.9585967247,-87.7083095759
CERMAK PRODUCE,53313,10000,A,4800 W DIVERSEY AVE,60639,17031190200,170311902004016,41.9316414204,-87.7467199106
CERMAK PRODUCE,1574003,14000,A,4401 W ARMITAGE AVE,60639,17031831200,170318312002004,41.9169344398,-87.7363871475
CERMAK PRODUCE,1476657,15000,A,1711 W CERMAK RD,60608,17031843200,170318432002043,41.8521678636,-87.6689750407
CERMAK PRODUCE,1770942,17000,A,3311 W 26TH ST,60623,17031840800,170318408001003,41.8443667287,-87.7078980538
CERMAK PRODUCE #5 LTD,1649774,10000,A,3435 S ARCHER AVE,60608,17031840300,170318403002016,41.8313499001,-87.6758478479
CERMAK PRODUCE NO.4,69608,17000,A,2701 W NORTH AVE,60647,17031241000,170312410002000,41.9101322404,-87.6946003939
CHARLIES  SUPERMARKET INC.,1441898,2500,B,2941 W MONTROSE AVE,60618,17031160601,170311606012000,41.9611144263,-87.7025869386
CHATHAM FOOD MARKET,1904290,4500,B,327 E 79TH ST,60619,17031440300,170314403002001,41.7509726753,-87.6169578802
CHICAGO FOOD CORP,1169745,10000,A,5800 N PULASKI RD,60646,17031130200,170311302001009,41.9859279924,-87.7286634185
CHICAGO GROCERS,1332221,2500,B,2122 W DEVON AVE,60659,17031020500,170310205001013,41.9979458853,-87.6835687050
Chicago Health - Maple Street,2065274,2900,B,22 W MAPLE ST,60610,17031081100,170310811003002,41.9019825524,-87.6292631031
CHICAGO PRODUCE,1865,13500,A,3500 W LAWRENCE AVE,60625,17031140200,170311402003015,41.9684853733,-87.7158713295
CICERO DELI INC.,20884,3600,B,3206 N CICERO AVE,60641,17031151002,170311510024009,41.9390466700,-87.7470219655
CITY GROCERY,1979483,5000,B,405 N WABASH AVE,60611,17031081500,170310815003007,41.8894653288,-87.6265092736
CLARENDON FOOD MART INC,29515,10000,A,4183 N CLARENDON AVE,60613,17031031400,170310314003003,41.9580048015,-87.6496537356
CLYBOURN MARKET,40522,3500,B,2807 N CLYBOURN AVE,60618,17031051400,170310514002008,41.9325791837,-87.6783274560
COMMERCIAL GROCERY,56894,2500,B,3004 E 100TH ST,60617,17031510100,170315101002007,41.7134978435,-87.5507331066
CORCORANS PANTRY INC,9412,4200,B,1105 W BRYN MAWR AVE,60660,17031030701,170310307011003,41.9835447852,-87.6582676725
COTTAGE GROVE FOOD MART,1898994,4000,B,6307 S COTTAGE GROVE AVE,60637,17031420800,170314208001004,41.7801519592,-87.6057775241
COUNTY FAIR FOODS,37096,10001,A,10800 S WESTERN AVE,60643,17031750300,170317503001022,41.6972382088,-87.6814748042
CRESPO'S FOOD MART,40132,2800,B,4353 W MADISON ST,60624,17031260600,170312606001001,41.8805049950,-87.7351228503
CUENCA'S BAKERY & GROCERIES,1619464,4500,B,4229 W MONTROSE AVE,60641,17031160300,170311603003002,41.9607675196,-87.7339469271
CUPBOARD FOOD & LIQUOR,7110,3000,B,3260 W 55TH ST,60632,17031630300,170316303002035,41.7935891795,-87.7059457835
D & A FOOD & LIQUOR,46444,5500,B,1601 W GARFIELD BLVD,60636,17031670300,170316703002005,41.7935543630,-87.6646375512
DANNY'S FRESH MARKET,1888080,14405,A,2140 N WESTERN AVE,60647,17031221500,170312215001018,41.9210962680,-87.6876710129
DEVON MARKET,1042888,18500,A,1440 W DEVON AVE,60660,17031010600,170310106003012,41.9982282538,-87.6671044665
DIA FOOD & LIQUOR,41854,4500,B,1478 W 115TH ST,60643,17031750600,170317506004046,41.6849557984,-87.6597258290
DILILAH GROCERY,1986580,3125,B,1759 W 21ST ST,60608,17031310800,170313108003012,41.8539678804,-87.6708701882
DISCOUNT MEAT COMPANY,13820,4160,B,339 W 79TH ST,60620,17031842400,170318424002003,41.7506874405,-87.6333809292
DISCOUNT PANTRY CORPORATION,32952,3600,B,4153 W 63RD ST,60629,17031650301,170316503013003,41.7784929073,-87.7273275190
DOLLAR DEALS & UP,1276566,2500,B,2057 N PULASKI RD,60639,17031200402,170312004021000,41.9188912639,-87.7264653150
DOLLAR & LINEN,1875260,5800,B,1853 W 87TH ST,60620,17031711300,170317113001005,41.7355890742,-87.6699517263
DOMINICK'S,1969836,59488,A,6623 N DAMEN AVE,60645,17031020500,170310205003006,42.0022233751,-87.6801288280
DOMINICK'S # 1100,41629,10001,A,3145 S ASHLAND AVE,60608,17031840400,170318404001032,41.8364683477,-87.6655669021
DOMINICK'S # 113/1113,41633,10001,A,6312 N NAGLE AVE,60646,17031100200,170311002002001,41.9959852861,-87.7876371171
DOMINICK'S # 12/0012,41645,10001,A,6009 N BROADWAY,60660,17031030101,170310301011003,41.9911817534,-87.6601550832
DOMINICK'S # 130/1130,41657,10001,A,2101 E 71ST ST,60649,17031430600,170314306001008,41.7659900011,-87.5737873367
DOMINICK'S #147/1147,41674,68000,A,1340 S CANAL ST,60607,17031841900,170318419002092,41.8645211937,-87.6393040996
DOMINICK'S #153/2153,41678,68000,A,424 W DIVISION ST,60610,17031080400,170310804002003,41.9038839611,-87.6394372016
DOMINICK'S #160/1698,41689,72000,A,1763 W HOWARD ST,60626,17031010202,170310102021001,42.0192885501,-87.6750585094
Dominick's #1703,1574461,49320,A,255 E GRAND AVE,60611,17031081403,170310814031010,41.8916898398,-87.6204441348
DOMINICK'S #1875,1273445,39000,A,1 N HALSTED ST,60661,17031280100,170312801001038,41.8818156316,-87.6472147170
DOMINICKS #2889,2042084,48735,A,5233 N LINCOLN AVE,60625,17031040202,170310402022002,41.9768950984,-87.6922796678
DOMINICKS #2890,2042094,55129,A,5201 N SHERIDAN RD,60640,17031030706,170310307061008,41.9764816676,-87.6548397772
DOMINICK'S # 304/2304,41617,10001,A,2550 N CLYBOURN AVE,60614,17031070700,170310707002005,41.9278717231,-87.6732588146
DOMINICK'S # 86/1086,41625,10001,A,3350 N WESTERN AVE,60618,17031843700,170318437001022,41.9427471952,-87.6883543215
"DOMINICK'S Finer Foods, Inc. #1695",41682,26819,A,959 W FULLERTON AVE,60614,17031071100,170310711002000,41.9252682757,-87.6534875641
DOMINICK'S FINER FOODS - STORE # 2775,1820382,54963,A,2021 W CHICAGO AVE,60622,17031243000,170312430001000,41.8957852296,-87.6779308926
EDDIE'S FOOD MART,50432,4500,B,1858 W 63RD ST,60636,17031670600,170316706002016,41.7794611564,-87.6714366715
EDDIE & SON FOOD &LIQ.,4146,2500,B,3624 W NORTH AVE,60647,17031230400,170312307001000,41.9100926711,-87.7175753532
"EDDIE'S SUNSHINE FOOD & LIQUOR,  INC.",24217,3000,B,10806 S MICHIGAN AVE,60628,17031490901,170314909012011,41.6978179235,-87.6210110036
EDDY'S FOOD MART,1879269,4000,B,7575 N ROGERS AVE,60626,17031010300,170310103002005,42.0191646250,-87.6683972880
EDGEWATER PRODUCE,16765,7400,B,5509 N CLARK ST,60640,17031030800,170310308001010,41.9819713770,-87.6683210323
EL BARRIO GROCERY,42681,10001,A,3938 W NORTH AVE,60647,17031230400,170312307004007,41.9100080401,-87.7254384633
EL MILAGRO,43513,5500,B,3048 W 26TH ST,60623,17031300900,170313009001012,41.8446873274,-87.7021029360
EL  PASEO  BORICUA,1301216,3000,B,2706 W DIVISION ST,60622,17031242600,170312426001013,41.9030542001,-87.6947704208
EL YUNQUE FOOD & LIQUOR,1986802,2500,B,1900 N CALIFORNIA AVE,60647,17031222500,170312225001000,41.9157610232,-87.6972958109
E.M. GROCERIES,4863,4500,B,5358 S CARPENTER ST,60609,17031612000,170316120002009,41.7961289732,-87.6514349028
EMILIO'S PRODUCE,1675623,2500,B,2294 N MILWAUKEE AVE,60647,17031221400,170312214002002,41.9225974657,-87.6970976291
EUROPA GALLERIA INC,1299537,6500,B,340 W SUPERIOR ST,60610,17031081800,170310818002018,41.8956627719,-87.6372207150
EXTRA VALUE FOOD & LIQUOR,1823321,5000,B,6257 S ASHLAND AVE,60636,17031670800,170316708002029,41.7796146658,-87.6640774893
FAIRPLAY FINER FOOD,10940,10001,A,2200 S WESTERN AVE,60608,17031841300,170318413002001,41.8519838396,-87.6857857042
FAIRPLAY FINER FOODS INC,10949,10001,A,4640 S HALSTED ST,60609,17031842600,170318426002035,41.8096297680,-87.6457075651
FAIRPLAY FOODS INC,10947,18500,A,2323 W 111TH ST,60643,17031750500,170317505001002,41.6916792040,-87.6797791725
FAIRWAY FOOD,2031993,3000,B,2900 E 79TH ST,60649,17031431301,170314313011010,41.7520053919,-87.5540154169
FAMILY PRIDE,77270,12500,A,10601 S PULASKI RD,60655,17031740200,170317402002010,41.7003552742,-87.7205408964
FARM SUPER MARKET,2017764,3000,B,2255 W DEVON AVE,60659,17031020901,170310209011002,41.9976669579,-87.6872134560
FIESTA SUPERMARCADO,1196305,14500,A,3307 W 63RD ST,60629,17031660500,170316605001002,41.7788185771,-87.7059035755
FIRST CHOICE MARKET,1969290,10000,A,3019 E 91ST ST,60617,17031461000,170314610001014,41.7299778712,-87.5503825944
FIVE STAR CERTIFIED INC,7168,5000,B,935 W 87TH ST,60620,17031711400,170317114002006,41.7359084057,-87.6474228803
FOOD 4 LESS,1884255,58000,A,4821 W NORTH AVE,60639,17031250800,170312508001000,41.9095051477,-87.7469599363
FOOD 4 LESS,1928152,63506,A,112 W 87TH ST,60620,17031842400,170318424002040,41.7363800456,-87.6275092190
Food 4 Less Midwest,1596210,62000,A,7030 S ASHLAND AVE,60636,17031671500,170316715003031,41.7657907704,-87.6639668865
FOOD 4 LESS MIDWEST #789,1272529,64486,A,4620 S DAMEN AVE,60609,17031610300,170316103003015,41.8096685280,-87.6751156964
FOOD BASKET,1682475,2500,B,7205 S HALSTED ST,60621,17031681300,170316813001006,41.7631811950,-87.6442150210
FOODSMART,1474028,13800,A,2901 W ARMITAGE AVE,60647,17031222500,170312225001004,41.9173585451,-87.6993410687
FOODSMART,46295,3500,B,3415 W DIVERSEY AVE,60647,17031220602,170312206025000,41.9318527752,-87.7129012497
FRESH BUY FOODS INC,23640,26000,A,6319 S VERNON AVE,60637,17031420700,170314207005004,41.7796646515,-87.6142509361
FRESH FARMS INTERNATIONAL,30144,9500,B,2626 W DEVON AVE,60659,17031020602,170310206023013,41.9977359091,-87.6959288805
FRESH MARKET PLACE,1382145,20000,A,2600 N CENTRAL AVE,60639,17031190602,170311906022018,41.9276476796,-87.7662665211
FRUTERIA EL MERCADO,21239,5500,B,2759 S SPAULDING AVE,60623,17031840800,170318408001015,41.8409331636,-87.7072241769
FURTERIA EL SERRANITO,2031979,2500,B,1755 W 38TH ST,60609,17031590700,170315907001015,41.8248606245,-87.6700230192
GAYTAN GROCERY STORE,85044,3500,B,2802 S KOLIN AVE,60623,17031301801,170313018011003,41.8403086304,-87.7331070590
GEMELOS FOOD/ CHECK CASHING SERVICES,1045757,6600,B,4300 S MOZART ST,60632,17031580502,170315805023027,41.8154320010,-87.6957977900
GENES SAUSAGE SHOP AT DELI MEYER,1922145,6000,B,4746 N LINCOLN AVE,60625,17031040600,170310406003004,41.9677536575,-87.6881717161
GENE'S SAUSAGE SHOP & DELI INC,1876,5000,B,5330 W BELMONT AVE,60641,17031151100,170311511002015,41.9387619658,-87.7604070714
GILMART'S  FOOD & LIQUOR,22715,10001,A,5044 S ARCHER AVE,60632,17031570300,170315703002016,41.8014000331,-87.7260437419
GOLDMORE FOOD,34046,2500,B,1949 W 51ST ST,60609,17031611700,170316117003002,41.8011278091,-87.6740803441
GRAND FOOD MARKET,1221783,3952,B,5202 W GRAND AVE,60639,17031191200,170311912002006,41.9170677465,-87.7560413324
"GRAND PALACE SUPERMARKET, INC",49648,3000,B,7131 S STATE ST,60619,17031691000,170316910004006,41.7645736329,-87.6247399651
"H & A FOOD MARKET, INC.",1379268,2500,B,1007 W 63RD ST,60621,17031681000,170316810004004,41.7795645849,-87.6499748357
HALAL MEAT & GROCERY,55665,2500,B,1414 W DEVON AVE,60660,17031010600,170310106003008,41.9982373871,-87.6661711005
HAPPY FOODS,1618660,11000,A,6783 N NORTHWEST HWY,60631,17031090200,170310902004007,42.0043992612,-87.8184857554
HAPPY FOODS,1618656,11500,A,6415 N CENTRAL AVE,60646,17031120200,170311202002015,41.9978600139,-87.7634457986
HARBOR MARKET,44759,4200,B,155 N HARBOR DR,60601,17031320100,170313201004020,41.8847505385,-87.6156039565
HAREER FOOD & LIQUOR,52337,2500,B,5452 S HALSTED ST,60609,17031612100,170316121001043,41.7945591033,-87.6453134277
HARPER FOODS,57683,3300,B,1455 E 57TH ST,60637,17031411100,170314111002000,41.7914105694,-87.5895326278
HARVESTIME FOODS,43697,8750,B,2632 W LAWRENCE AVE,60625,17031040201,170310402013015,41.9686702259,-87.6951627475
Hegewisch Fruit Market Inc.,2020869,7800,B,13209 S BALTIMORE AVE,60633,17031550100,170315501006033,41.6551885903,-87.5469994185
HILLTOP LIQUORS MART,788,3200,B,10259 S MICHIGAN AVE,60628,17031490800,170314908005007,41.7072479748,-87.6200563640
HOA NOM CO,8425,4200,B,1101 W ARGYLE ST,60640,17031031200,170310312002002,41.9731612999,-87.6578331796
HOLLYWOOD TOWER MKT,1858,3000,B,5701 N SHERIDAN RD,60660,17031030604,170310306042001,41.9856384210,-87.6550943233
HONG KONG MARKET,1892499,46300,A,520 W 24TH PL,60616,17031841100,170318411003017,41.8482371659,-87.6409555275
"HYDE PARK PRODUCE, LTD",1884100,10000,A,1226 E 53RD ST,60615,17031410700,170314107001003,41.7995768022,-87.5955129219
H & Z GROCERY STORE,3166,10001,A,3638 W WRIGHTWOOD AVE,60647,17031220702,170312207024010,41.9283452514,-87.7186708995
IMPERIAL TOWER MARKET,22624,6031,B,4250 N MARINE DR,60613,17031031400,170310314001001,41.9600199540,-87.6469060276
INTERNATIONAL FOODS NW INC,1129,14000,A,4404 W FULLERTON AVE,60639,17031200200,170312002003012,41.9244726356,-87.7367895050
INTERNATIONAL SUPERMARKET INC,16712,7500,B,4556 S ASHLAND AVE,60609,17031610400,170316104001000,41.8105656774,-87.6651705169
JAMAICA FOOD & LIQUOR INC,22679,2500,B,4252 S COTTAGE GROVE AVE,60653,17031380100,170313801001032,41.8170297652,-87.6068579199
J AND P FINER FOODS,1567,4500,B,3501 W MONTROSE AVE,60618,17031160501,170311605012002,41.9609885935,-87.7156463163
J & A ORIENTAL FOOD MART,30859,10001,A,5755 W FULLERTON AVE,60639,17031191302,170311913022003,41.9237993545,-87.7706332364
JARDAN FOOD & LIQUOR,11226,9500,B,317 E GARFIELD BLVD,60637,17031400400,170314004001003,41.7943249341,-87.6185206053
JERUSALEM LIQUORS,440,4500,B,3133 W LAWRENCE AVE,60625,17031140800,170311408005007,41.9683547002,-87.7073943249
JEWEL FOOD STORE,1953613,62603,A,11730 S MARSHFIELD AVE,60643,17031750500,170317505004003,41.6803322053,-87.6625846787
JEWEL FOOD STORE #3030,1000572,31951,A,7530 S STONY ISLAND AVE,60649,17031834200,170318342004016,41.7578056585,-87.5862682580
JEWEL FOOD STORE #3043,1144384,37641,A,443 E 34TH ST,60616,17031351000,170313510002003,41.8330447382,-87.6146113644
JEWEL FOOD STORE #3057,1400,21785,A,6057 S WESTERN AVE,60636,17031835000,170318350001001,41.7830611377,-87.6835988697
JEWEL FOOD STORE #3092,1411,10001,A,1655 E 95TH ST,60617,17031510300,170315103003000,41.7222631981,-87.5829176346
JEWEL FOOD STORE #3114,1388,20860,A,3128 W 103RD ST,60655,17031740100,170317401001002,41.7063128446,-87.6997671192
JEWEL FOOD STORE #3139,1356,22295,A,3940 E 106TH ST,60617,17031520400,170315204001013,41.7028060951,-87.5277040116
JEWEL FOOD STORE #3170,1366,30374,A,5320 S PULASKI RD,60632,17031620200,170316202001001,41.7961975914,-87.7233918834
JEWEL FOOD STORE #3176,1404,32294,A,9400 S ASHLAND AVE,60620,17031730300,170317303001029,41.7229412182,-87.6628628713
JEWEL FOOD STORE #3181,1368,30745,A,87 W 87TH ST,60620,17031842400,170318424002071,41.7361451282,-87.6269178440
JEWEL FOOD STORE #3210,1333,23845,A,1210 N CLARK ST,60610,17031080202,170310802021001,41.9042652283,-87.6316032946
JEWEL FOOD STORE #3224,1144401,29299,A,6430 W IRVING PARK RD,60634,17031170100,170311701001008,41.9530102332,-87.7877071626
JEWEL FOOD STORE #3241,1398,24262,A,1341 N PAULINA ST,60622,17031241500,170312415002012,41.9062437031,-87.6698622813
JEWEL FOOD STORE #3282,1337,24922,A,4729 N CENTRAL AVE,60630,17031150300,170311503007003,41.9667971120,-87.7672994806
JEWEL FOOD STORE #3296,1392,29421,A,7342 W FOSTER AVE,60656,17031100500,170311005002003,41.9745429477,-87.8113468842
JEWEL FOOD STORE #3302,1402,25431,A,3644 S ARCHER AVE,60609,17031590500,170315905001037,41.8275838968,-87.6824544425
JEWEL FOOD STORE #3344,1192905,63407,A,1220 S ASHLAND AVE,60608,17031842900,170318429004020,41.8662541761,-87.6665241401
JEWEL FOOD  STORE # 3345,1142451,60271,A,1224 S WABASH AVE,60605,17031330100,170313301001004,41.8667243541,-87.6259611484
JEWEL FOOD STORE #3349,1353385,64285,A,2520 N NARRAGANSETT AVE,60639,17031831500,170318315001045,41.9262969563,-87.7856948240
JEWEL FOOD STORE #3368,1226337,31600,A,550 N STATE ST,60610,17031081600,170310816001003,41.8924213661,-87.6282348711
JEWEL FOOD STORE #3407,1394,19238,A,5516 N CLARK ST,60640,17031030900,170310309001000,41.9821898846,-87.6686516280
JEWEL FOOD STORE #3441,1375,22443,A,2940 N ASHLAND AVE,60657,17031062600,170310626001023,41.9354720327,-87.6686545431
JEWEL FOOD STORE #3442,1406,29060,A,4042 W FOSTER AVE,60630,17031130200,170311302001019,41.9756241124,-87.7298445616
JEWEL FOOD STORE #3443,1323,25356,A,5343 N BROADWAY,60640,17031030703,170310307031001,41.9794282549,-87.6598058547
JEWEL FOOD STORE #3454,1325,25490,A,4250 N LINCOLN AVE,60618,17031050200,170310502002007,41.9591004330,-87.6823922417
JEWEL FOOD STORE #3455,1380,23660,A,4355 N SHERIDAN RD,60613,17031032100,170310321001001,41.9613977799,-87.6545929748
JEWEL FOOD STORE #3470,1382,24815,A,3570 N ELSTON AVE,60618,17031831100,170318311001001,41.9460576040,-87.7082301098
JEWEL FOOD STORE #3477,1372,17676,A,4734 N CUMBERLAND AVE,60656,17031760802,170317608021009,41.9660114013,-87.8368311691
JEWEL FOOD STORE #3501,1192909,56010,A,3400 N WESTERN AVE,60618,17031843700,170318437001018,41.9431873732,-87.6883020207
JEWEL FOOD STORE #3514,1385,20285,A,3531 N BROADWAY,60657,17031061800,170310618001000,41.9463846516,-87.6465248633
JEWEL FOOD STORE #3721,1225534,49513,A,6107 S ARCHER AVE,60638,17031560800,170315608002027,41.7943548532,-87.7705271521
JEWEL FOOD STORES #3262,1409,35000,A,4660 W IRVING PARK RD,60641,17031831700,170318317001021,41.9535544384,-87.7450553112
JEWEL-OSCO #3632,2037181,62349,A,3630 N SOUTHPORT AVE,60613,17031060400,170310604002006,41.9480045508,-87.6641862307
J & J EUROPEAN DELI,21936,3000,B,5960 W LAWRENCE AVE,60630,17031150401,170311504013000,41.9677648001,-87.7770202043
J K & S FOOD & LIQUOR,1000978,3024,B,503 W 59TH ST,60621,17031834600,170318346002004,41.7870390747,-87.6378127282
JOE'S FOOD AND LIQUOR DEPOT,1575140,4000,B,5834 W FULLERTON AVE,60639,17031190602,170311906023021,41.9239918266,-87.7722891067
JOE'S FOOD & LIQUOR,822,3500,B,3626 W LAWRENCE AVE,60625,17031140301,170311403011011,41.9684452460,-87.7194165758
JOLANTA'S INTERNATIONAL DELI,26376,10001,A,5914 W HIGGINS AVE,60630,17031110400,170311104003013,41.9727914969,-87.7763718583
JOSEPH FOOD MART,6157,3000,B,8235 W IRVING PARK RD,60634,17031170500,170311705003004,41.9520185577,-87.8331668434
J R GROCERY STORE,5644,10001,A,505 E 134TH ST,60827,17031540101,170315401011006,41.6517610645,-87.6093666123
KAMDAR PLAZA INC,4429,5500,B,2646 W DEVON AVE,60659,17031020602,170310206023014,41.9977219015,-87.6966411029
"Kan-Zaman Mart, Inc.",1119908,4600,B,2005 S MICHIGAN AVE,60616,17031330100,170313301004046,41.8553176710,-87.6237265152
KAPS FOODS,57817,4100,B,3557 S CALIFORNIA AVE,60632,17031580100,170315801001006,41.8283836447,-87.6946201700
K BUENA,1999075,3500,B,4322 W MARQUETTE RD,60629,17031650301,170316503012017,41.7713833198,-87.7309533689
KEY FOOD LIQUOR,17551,3800,B,13355 S INDIANA AVE,60827,17031540101,170315401012014,41.6519728186,-87.6170837363
KHALIL FOOD & LIQUOR,46846,3000,B,146 W 103RD ST,60628,17031490700,170314907002019,41.7072181390,-87.6277515583
KING FOOD & LIQUOR,40321,3750,B,6858 S HALSTED ST,60621,17031681100,170316811001011,41.7689262968,-87.6446559970
K & K FOOD & LIQUOR,62092,4200,B,1130 W 51ST ST,60609,17031611000,170316110001031,41.8015768439,-87.6537884728
KOL TUV KOSHER FOODS INC,12952,3000,B,2938 W DEVON AVE,60659,17031020601,170310206012018,41.9976012808,-87.7036126719
KORDIAN'S MARKET,28114,4610,B,6332 W HIGGINS AVE,60630,17031110300,170311103002023,41.9759840467,-87.7865613104
"KRAKUS DELI,  INC",1222467,3500,B,5155 W ADDISON ST,60641,17031151001,170311510011000,41.9458951009,-87.7566458523
LA CASA DEL PUEBLO INC,31675,10001,A,1810 S BLUE ISLAND AVE,60608,17031310600,170313106002008,41.8574527464,-87.6616883311
LA CIENEGA SUPER FOOD INC,65173,10000,A,10736 S EWING AVE,60617,17031520300,170315203003000,41.6998148465,-87.5354268905
LA FERIA GROCERY,26609,10001,A,9704 S COMMERCIAL AVE,60617,17031510100,170315101002033,41.7189121563,-87.5511742972
LA GUERRERENSE,67114,3000,B,4149 W ARMITAGE AVE,60639,17031831200,170318312003003,41.9170000028,-87.7309892645
LA INTERNATIONAL,57700,3000,B,4301 S ARCHER AVE,60632,17031580502,170315805021004,41.8153006937,-87.7020416008
LA JALISCIENCE,4749,3000,B,3239 W 26TH ST,60623,17031840800,170318408001002,41.8443879922,-87.7064970959
LAKE VIEW FOODS INC,2055,3100,B,4106 N SHERIDAN RD,60613,17031032100,170310321003005,41.9570402995,-87.6547628922
"LA LOMA ""CARNICERIA Y TAQUERIA""",49880,4501,B,2535 N LARAMIE AVE,60639,17031190800,170311908004009,41.9270360931,-87.7561061830
LA MERCED INC,6834,10001,A,4335 W 26TH ST,60623,17031301801,170313018012007,41.8440327965,-87.7324328647
"LA NUEVA IMAGEN GROCERY, INC.",1804216,3000,B,2459 S MILLARD AVE,60623,17031300600,170313006002001,41.8462971046,-87.7159164295
LA PERLA TAPATIA BAKERY,1698,3000,B,4214 W NORTH AVE,60639,17031230500,170312306004000,41.9099197540,-87.7319712570
LA PLAMA,22662,15000,A,4173 S ARCHER AVE,60632,17031580501,170315805012012,41.8175793077,-87.6983205863
L'APPETITO,42672,2900,B,875 N MICHIGAN AVE,60611,17031081300,170310813003001,41.8989485417,-87.6239749877
LA PROVIDENCIA FOOD MART,16986,2572,B,1658 W 21ST ST,60608,17031310800,170313108003010,41.8542193742,-87.6684581591
LARAMIE BAKERY & DELI,2014141,12331,A,3232 N HARLEM AVE,60634,17031170800,170311708001011,41.9389859689,-87.8069290648
"LATIN GROCERY & LIQUOR, INC",20046,10001,A,3800 W NORTH AVE,60647,17031230400,170312304002014,41.9100494194,-87.7214580839
"LA UNICA FOOD MART, INC.",491,5000,B,1515 W DEVON AVE,60660,17031030200,170310302004002,41.9979934597,-87.6684278857
LAWNDALE FOOD MARKET,39529,6000,B,3705 W 16TH ST,60623,17031292200,170312922003000,41.8588339683,-87.7178671863
Laxi Liquor,47780,3200,B,6922 W GRAND AVE,60707,17031831600,170318316002012,41.9236807003,-87.7986761286
LEMEN SUN CORP.,28022,3600,B,2832 S WENTWORTH AVE,60616,17031340400,170313404001020,41.8416044818,-87.6319155034
LINDO MICHOACAN,42744,8600,B,3142 W LAWRENCE AVE,60625,17031140100,170311401002004,41.9685727721,-87.7077877013
LOGAN CERTIFIED FOODS CORP,1046303,4500,B,2857 W DIVERSEY AVE,60647,17031220400,170312204001003,41.9319704700,-87.6999316190
LORETO GROCERY,76774,4499,B,4600 S FAIRFIELD AVE,60632,17031842800,170318428002005,41.8100014783,-87.6931813523
LOS CUATRO HERMANOS GROCERY,7790,10001,A,1858 S ALLPORT ST,60608,17031310600,170313106002002,41.8562022212,-87.6577449724
LOS POTRILLOS,1650212,7000,B,3624 W BELMONT AVE,60618,17031831100,170318311004023,41.9393095160,-87.7185399405
LOS SAUCES GROCERY,1223250,2800,B,5852 W DIVERSEY AVE,60639,17031190402,170311904022037,41.9312882001,-87.7732414533
LOUIS' GROCERIES,2153429,,A,7604 S COTTAGE GROVE AVE,60619,17031691400,170317000000000,41.75655031,-87.60548285
LUCIANO'S GROCERY-18TH ST,1380524,6000,B,1714 W 18TH ST,60608,17031310800,170313108001010,41.8578565675,-87.6694195956
LUX 2 FOOD & LIQUOR,1869021,2500,B,7550 S MAY ST,60620,17031710200,170317102004006,41.7561626996,-87.6528196032
MACIAS PRODUCE INC.,1648017,7000,B,8933 S COMMERCIAL AVE,60617,17031833900,170318339001015,41.7327335949,-87.5511727836
MAKOLA AFRICAN SUPERMARKET #2,2008279,3500,B,4501 N SHERIDAN RD,60640,17031031502,170310315022003,41.9636502775,-87.6546221904
MANDY'S LIQUOR,17168,3000,B,1957 W LAWRENCE AVE,60640,17031830800,170318308001003,41.9686561373,-87.6784384790
MARIANO'S FRESH MARKET #8507,2163771,,A,5353 N ELSTON AVE,60630,17031110100,170311000000000,41.97871026,-87.75715377
MARIO 'S BUTCHER SHOP FD CNTR,4248,10001,A,5817 W MADISON ST,60644,17031252101,170312521011003,41.8800449808,-87.7704933793
MARKET IN THE PARK,1334026,5049,B,5050 S LAKE SHORE DR,60615,17031390700,170313907003004,41.8028797781,-87.5818436939
MA'S & PA'S GROCERY SNACK SHOP,7302,4500,B,804 S CALIFORNIA AVE,60612,17031271800,170312718001017,41.8708776439,-87.6961668842
MAYFAIR MARKET PLACE,1948869,12000,A,4728 N PULASKI RD,60630,140500,170311405001000,41.9672666701,-87.7281470478
MAYFLOWER FOOD,1168793,6000,B,2104 S ARCHER AVE,60616,17031841100,170318411001021,41.8542653039,-87.6321895068
M & D VARIETY STORE,18355,4500,B,1300 W 111TH ST,60643,17031750100,170317501004020,41.6923196266,-87.6546632113
MEHRAB ZABIHA MEAT & TOBACCO,1094121,3000,B,2445 W DEVON AVE,60659,17031020802,170310208024001,41.9975920168,-87.6916681219
MELISSA'S FOOD & LIQUORS INC,29494,3500,B,3867 W GRAND AVE,60651,17031230700,170312307003012,41.9050594546,-87.7239513845
MIARA'S CONT'L PASTRY DELI INC,10400,5000,B,7051 W ADDISON ST,60634,17031171000,170311710005004,41.9452338231,-87.8029266385
MICELI'S DELI & FOOD MART,44924,4000,B,2448 S OAKLEY AVE,60608,17031841300,170318413003008,41.8470204640,-87.6831995522
MICHAELS FRESH MARKET,2043177,41000,A,1300 E 47TH ST,60653,17031390100,170313901001017,41.8097727266,-87.5949608909
MID TOWN FOODS,39968,3520,B,3855 W DIVISION ST,60651,17031231200,170312312004002,41.9025838739,-87.7236192485
MI MEXICO GROCERY,1494240,2600,B,2601 W 59TH ST,60629,17031835000,170318350005001,41.7863763432,-87.6887765140
MINI MERCADO LA BETANIA,33473,2640,B,2800 S TRIPP AVE,60623,17031301803,170313018033002,41.8403965367,-87.7306750125
M & J LIQUOR & GROCERY,15168,2900,B,3654 W LAWRENCE AVE,60625,17031140301,170311403011010,41.9684345799,-87.7204810114
MLB FOOD,1884977,2500,B,613 E 67TH ST,60637,17031421200,170314212001005,41.7729559039,-87.6100578109
MOO & OINK INC,11915,21500,A,4848 W MADISON ST,60644,17031251800,170312518004015,41.8805838854,-87.7470529414
"MORELIA SUPERMARKET #2, INC.",1648410,12000,A,4833 W DIVERSEY AVE,60639,17031190800,170311908001001,41.9314062910,-87.7479369735
"MORELIA SUPERMARKET, INC.",1892862,8000,B,7300 N WESTERN AVE,60645,17031020200,170310202002007,42.0141839829,-87.6903783498
MORGAN FOOD CORP LLC,1270949,3500,B,6600 S MORGAN ST,60621,17031681000,170316810003009,41.7741289538,-87.6496459973
MOROLEON FOODS #2 INC.,1801622,3025,B,4257 S ROCKWELL ST,60632,17031580700,170315807003005,41.8157711158,-87.6893858973
MORSE FOOD AND MEAT MARKET,1518304,17000,A,1430 W MORSE AVE,60626,17031010600,170310106004012,42.0079949199,-87.6671741467
MOUNSEF INTERNATIONAL,21126,10001,A,4738 N KEDZIE AVE,60625,17031140701,170311407011000,41.9677930872,-87.7086027049
MR G'S FOOD & LIQUOR,1429,3000,B,332 E 58TH ST,60637,17031400400,170314004002002,41.7894298575,-87.6178403398
MUNCHIES ON LARRABEE,2073925,2500,B,1012 N LARRABEE ST,60610,17031842200,170318422001074,41.9008485875,-87.6432555365
Municipal Foods,1478386,9980,B,2559 W DIVISION ST,60622,17031242500,170312425001002,41.9028592342,-87.6918885843
"MY RANCH, INC.",1899688,8500,B,4650 N SHERIDAN RD,60640,17031830700,170310315011002,41.9669775683,-87.6549446417
NANCE FOOD MART,4756,4500,B,10935 S WENTWORTH AVE,60628,17031491000,170314910002007,41.6951531575,-87.6278202407
NANCY FOODS INC,79959,2500,B,12315 S STATE ST,60628,17031530600,170315306002026,41.6702523999,-87.6222719562
NATIONAL FRUIT STOP,23627,3000,B,3523 W LAWRENCE AVE,60625,17031140701,170311407012002,41.9682556374,-87.7168773813
Natural Country Deli,2017781,3500,B,6452 N MILWAUKEE AVE,60631,17031100200,170311002001019,41.9984929696,-87.7890953687
NAYAB MART,1444872,3125,B,2449 W DEVON AVE,60659,17031020802,170310208024001,41.9975891244,-87.6918369148
NEIL'S FOOD,1998505,3500,B,7749 S HALSTED ST,60620,17031710100,170317101001007,41.7528304183,-87.6439505248
NEW LA ESTRELLA FOODS INC.,2003267,5800,B,3003 W 63RD ST,60629,17031660600,170316606005000,41.7789315569,-87.6984170935
NEW POP-IN,1719179,8784,B,413 S KEDZIE AVE,60612,17031271200,170312712001033,41.8754237451,-87.7058203625
NICKEL LIQUOR & MINI MART INC,22084,10001,A,3637 W DIVISION ST,60651,17031231200,170312312001002,41.9026337556,-87.7179312389
NOOR MEAT,61680,3000,B,2505 W DEVON AVE,60659,17031020802,170310208024002,41.9975738059,-87.6925485988
NORTHWEST FOOD & LIQUOR,1119636,3180,B,5170 W NORTH AVE,60639,17031250200,170312502001025,41.9096148952,-87.7554779679
"OGIES FOOD, INC",26972,10001,A,2600 W LITHUANIAN PLAZA CT,60629,17031660900,170316609003018,41.7683658358,-87.6883009077
OHIO FOOD MART,1225367,3500,B,5345 W OHIO ST,60644,17031251500,170312515002004,41.8910492873,-87.7597328373
OLD WORLD MARKET,7507,10001,A,5129 N BROADWAY,60640,17031031200,170310312003004,41.9754753986,-87.6596970117
OLIVE MOUNT MART,1337266,3000,B,3536 W 63RD ST,60629,17031660400,170316604003014,41.7789401249,-87.7118685723
ONE STOP,2032029,2500,B,4401 W MADISON ST,60624,17031260500,170312605001000,41.8804994508,-87.7355959610
ONE STOP FOOD & LIQUOR STORE,1094,58000,A,4301 S LAKE PARK AVE,60653,17031390100,170313901001006,41.8168651481,-87.5986888442
ORIENTAL ASIA MARKET INC.,1903198,7500,B,4932 N SHERIDAN RD,60640,17031031200,170310312004004,41.9725559281,-87.6550576698
ORLEANS MARKET,23467,3002,B,316 W ILLINOIS ST,60610,17031081800,170310818002056,41.8908642852,-87.6363291879
OSAMA FOOD MART,2031620,2800,B,615 E 67TH ST,60637,17031421200,170314212001005,41.7729575221,-87.6099733981
OUTLET KINGDOM,2054475,4000,B,3449 S HALSTED ST,60608,17031839700,170318397002011,41.8310749437,-87.6459711122
PAR BIRDIE FOODS,28222,6000,B,2234 W DEVON AVE,60659,17031020500,170310205002010,41.9979009735,-87.6863782179
"PARK FOODS OF 71ST STREET,INC.",1677517,3500,B,2612 W 71ST ST,60629,17031660900,170316609003037,41.7647171389,-87.6887509815
"PARK PACKING OF CHICAGO, INC.",2008956,3500,B,1544 W 41ST ST,60609,17031842600,170318426002022,41.8191594443,-87.6642353554
PARKSHORE MARKET LTD,26464,2860,B,195 N HARBOR DR,60601,17031320100,170313201004007,41.8861772806,-87.6155996011
PATEL BROS,25338,5000,B,2610 W DEVON AVE,60659,17031020602,170310206023013,41.9977473006,-87.6952511581
PAULINA MARKET,1680919,10000,A,3501 N LINCOLN AVE,60657,17031831900,,41.9452541584,-87.6723897932
PAULINA SUPER MARKET INC,4851,7000,B,7622 N PAULINA ST,60626,17031010100,170310101002010,42.0200873150,-87.6732345632
PEORIA PACKING LTD,33970,8000,B,1300 W LAKE ST,60607,17031833000,170318330002051,41.8855804200,-87.6589569108
PERSONAL LIQUORS INC,8913,6000,B,4241 W MADISON ST,60624,17031260600,170312606001000,41.8805391992,-87.7322160373
PETERSON FOOD MART,1272746,2500,B,2534 W PETERSON AVE,60659,17031020802,170310208021019,41.9905852147,-87.6935345218
PETE'S FRESH MARKET,1598145,50000,A,3448 E 118TH ST,60617,17031550100,170315501005014,41.6810595555,-87.5393675414
PETE'S FRESH SUPERMARKET,1771242,,A,2526 W CERMAK RD,60608,17031840700,170318000000000,41.85210065,-87.68905111
PETE'S FRESH SUPERMARKET,1771242,75000,A,2526 W CERMAK RD,60608,17031840700,170318407003019,41.8521006532,-87.6890511106
PETE'S MARKET,36823,10001,A,5724 S KEDZIE AVE,60629,17031630900,170316309001016,41.7891125480,-87.7035797266
PETE'S MEAT & GROCERY #2,1646096,7500,B,2001 W 71ST ST,60636,17031672000,170316720003002,41.7646961210,-87.6735927847
PETE'S PRODUCE,1476553,5000,B,1543 E 87TH ST,60619,17031480200,170314802001001,41.7367954576,-87.5862725091
PETE'S PRODUCE,1448266,10000,A,1411 W 87TH ST,60620,17031711400,170317114001001,41.7357448514,-87.6587177057
P & I FOOD & LIQUOR INC.,16647,3000,B,4154 W DIVISION ST,60651,17031230600,170312306002011,41.9027068139,-87.7310180698
POLONIA FOOD MART,6455,10001,A,1956 W ARMITAGE AVE,60622,17031832300,170318323001065,41.9178707156,-87.6774806152
POTASH BROS INC,19826,10001,A,875 N STATE ST,60610,17031081201,170310812012003,41.8988781974,-87.6281111483
POTASH BROS. SUPERMARKET,164,12000,A,1525 N CLARK ST,60610,17031080201,170310802012003,41.9101179449,-87.6314908914
PRESTIGE LIQUORS,1883995,2900,B,7104 S WESTERN AVE,60636,17031661000,170316610004000,41.7644955967,-87.6833842675
PUERTO RICO FOOD & LIQUORS,2033049,2500,B,2559 W AUGUSTA BLVD,60622,17031242500,170312425002002,41.8992215766,-87.6917381162
QUALITY FOOD ON 71 ST INC,76481,3000,B,2557 W 71ST ST,60629,17031661000,170316610004004,41.7645116769,-87.6879866550
QUICK STOP FOOD MART,39791,3000,B,2751 W PRATT BLVD,60645,17031020601,170310206011001,42.0047500731,-87.6994227766
QUINTESSENCE,2033012,3000,B,1532 N PULASKI RD,60651,17031230600,170312306001006,41.9091077550,-87.7266341469
RAINBOW FINER FOOD & LIQUOR,9138,3500,B,6316 S ASHLAND AVE,60636,17031671200,170316712001000,41.7789224055,-87.6643526811
RAINBOW GROCERY,61801,2500,B,2003 W 69TH ST,60636,17031671500,170316715002005,41.7683283348,-87.6738193840
"RICH'S DELI & LIQUOR, INC",16735,3400,B,857 N WESTERN AVE,60622,17031242400,170312424002016,41.8974609845,-87.6867385577
RICHWELL MARKET,1070189,7500,B,1835 S CANAL ST,60616,17031843200,170318432002008,41.8566571782,-87.6387533453
RIGO'S GROCERY,1144306,2500,B,2858 S LAWNDALE AVE,60623,17031301702,170313017023004,41.8389367453,-87.7172305546
"RIO GRANDE FRUIT MARKET, INC.",1042285,3750,B,3501 W NORTH AVE,60647,17031230800,170312308001000,41.9099107051,-87.7143855102
RITE PRICE FOOD,1198136,3600,B,5606 W DIVISION ST,60651,17031250600,170312506002013,41.9022506897,-87.7659509238
RIVERSIDE DELI,6403,5500,B,1656 W CORTLAND ST,60622,17031832300,170318323001048,41.9161861150,-87.6701349439
RIVIERA FOODS,39650,3500,B,3218 N HARLEM AVE,60634,17031170800,170311708001011,41.9385912816,-87.8069148007
RJ Liquors,1597198,3550,B,5640 W FULLERTON AVE,60639,17031190602,170311906022035,41.9240644164,-87.7676604864
RODRIGUEZ FRUITS & VEGETABLE,18231,2626,B,2458 S ST LOUIS AVE,60623,17031300700,170313007003004,41.8463298609,-87.7125513997
ROMAN BROS 1 INC,11900,10001,A,6978 N CLARK ST,60626,17031010702,170310107022004,42.0088564722,-87.6740803740
ROSE-RIDGE FOODS,1145417,3000,B,10500 S MICHIGAN AVE,60628,17031490902,170314909022043,41.7034152187,-87.6208096791
ROYLA BLUE FOODS,27007,2500,B,4359 S CAMPBELL AVE,60632,17031580700,170315807003013,41.8139376802,-87.6869220140
"R & S DISCOUNT FOOD, WINE, & LIQUOR",8647,2800,B,2425 W DIVERSEY AVE,60647,17031830900,170318309003001,41.9320468510,-87.6889786863
SAFAH FOOD & LIQUOR INC,14103,3000,B,7105 S RACINE AVE,60636,17031681400,170316814002001,41.7648964002,-87.6539648335
SAHAR INTERNATIONAL SUPERMARKET,2079006,7900,B,4851 N KEDZIE AVE,60625,17031140100,170311401002004,41.9699575396,-87.7083728782
SAM FOOD AND LIQUOR,8745,3000,B,6812 N SHERIDAN RD,60626,17031010502,170310105022000,42.0059448161,-87.6611747511
SANABEL GROCERY & BAKERY,2009055,6200,B,4213 N KEDZIE AVE,60618,17031160601,170311606011005,41.9579834025,-87.7079959151
SAVE-A-LOT  #851,1167119,114100,A,10700 S HALSTED ST,60628,17031750100,170317501001000,41.6995474147,-87.6427519151
SAVE-A-LOT  #852,1145759,14166,A,7240 S STONY ISLAND AVE,60649,17031430400,170314304002007,41.7630223653,-87.5863901619
SAVE-A-LOT # 854,1245433,15000,A,7908 S HALSTED ST,60620,17031710800,170317108001009,41.7503223874,-87.6441824061
SAVE-A-LOT   #856,1222884,12000,A,5555 W NORTH AVE,60639,17031250700,170312507004001,41.9092745667,-87.7651877850
SAVE-A-LOT  # 858,1272454,12000,A,2858 E 83RD ST,60617,17031460302,170314603024017,41.7447308395,-87.5540391375
SAVE-A-LOT  #859,1272455,12000,A,420 S PULASKI RD,60624,17031260700,170312607002016,41.8745373122,-87.7255969017
SAVE-A-LOT #860,1196076,12500,A,4439 W 63RD ST,60629,17031650301,170316503011004,41.7784159744,-87.7340575715
SAVE-A-LOT  #862,1353496,14800,A,4701 S COTTAGE GROVE AVE,60615,17031390400,170313904002002,41.8094892465,-87.6064174294
SAVE-A-LOT # 866,1299911,,A,3939 W OGDEN AVE,60623,17031843400,170318000000000,41.85128849,-87.72385084
Save-A-Lot #882,2079367,16290,A,344 E 63RD ST,60637,17031400800,170314008001008,41.7803216101,-87.6171353804
Save-A-Lot #886,2079232,13000,A,148 W 79TH ST,60620,17031691200,170316912002015,41.7509837901,-87.6289614545
SAVEWAY FOOD,1594450,3000,B,313 E 43RD ST,60653,17031835800,170318358001004,41.8164863247,-87.6191968314
SERRELLI'S FOODS,6981,4000,B,6454 W NORTH AVE,60707,17031250500,170312505002029,41.9092298950,-87.7871288207
SEVEN ELEVEN,34710,3000,B,1425 W MONTROSE AVE,60613,17031060100,170310601001000,41.9615238247,-87.6660398556
"SEVEN NINE ELEVEN FOOD MART, INC.",2036,4300,B,4884 S ARCHER AVE,60632,17031570400,170315704002008,41.8046211506,-87.7199070655
SHOP & SAVE MARKET,1991275,63426,A,5829 S ARCHER AVE,60638,17031560700,170315607002039,41.7960196245,-87.7596833672
SHOP WISE FOOD,1334440,6000,B,316 W 103RD ST,60628,17031490700,170314907003028,41.7071739515,-87.6314024214
"S & K FOOD & LIQUOR, INC.",1544,10001,A,7500 S EXCHANGE AVE,60649,17031431302,170314313022001,41.7589927618,-87.5603778108
S L PANTRY & GRILL,2013420,2600,B,4759 N SHERIDAN RD,60640,17031031501,170310315012001,41.9690466747,-87.6546740590
SOLID GOLD,1490386,3300,B,3821 W ROOSEVELT RD,60624,17031838700,170318387001005,41.8661194940,-87.7209275740
SOUTH SHORE FOOD MARKET INC.,2008403,3000,B,7501 S JEFFERY BLVD,60649,17031431200,170314312002008,41.7587872873,-87.5759934845
S. S. FOOD & LIQUOR,1476109,2703,B,2427 N CLARK ST,60614,17031070101,170310701012002,41.9263716974,-87.6408000783
STANLEY'S,15042,10001,A,1558 N ELSTON AVE,60622,17031842300,170318423001025,41.9105746696,-87.6622352294
STEVE FOOD & LIQUOR,47965,3500,B,6058 S RACINE AVE,60636,17031670900,170316709001004,41.7833341838,-87.6547432794
STOP & GO FOOD MART,26776,3250,B,1622 W MONTEREY AVE,60643,17031750600,170317506004009,41.6895747692,-87.6627231456
S & T PROVISION CO INC,12173,10001,A,3804 W 111TH ST,60655,17031740300,170317403001022,41.6914459103,-87.7156731039
STRACK & VAN TIL,1798602,65400,A,2627 N ELSTON AVE,60647,17031830900,170318309001006,41.9294892740,-87.6836878249
SUN LIQUORS,19461,4350,B,1101 W GRANVILLE AVE,60660,17031030102,170310301022001,41.9944657079,-87.6583928132
SUNRISE FOOD AND LIQUORS,21927,7000,B,3737 W CHICAGO AVE,60651,17031231500,170312315006001,41.8953147590,-87.7201998415
"SUPER DOLLAR AND UP 4, INC.",1597521,4000,B,1604 W 59TH ST,60636,670300,170316703001011,41.7868526305,-87.6646155793
SUPER DOLLAR DISCOUNT,2032403,3500,B,4801 S ASHLAND AVE,60609,17031611200,170316112002007,41.8066939242,-87.6647716526
"SUPER FOOD & LIQUORS, INC.",40429,4000,B,1049 W BRYN MAWR AVE,60660,17031030701,170310307011001,41.9835639150,-87.6571462910
SUPER FURNITURE & FOOD MART,2060727,4000,B,5257 S ASHLAND AVE,60609,17031611900,170316119001005,41.7978225881,-87.6645368783
SUPERIOR NUT & CANDY  CO.I INC.,1122087,10005,A,1111 W 40TH ST,60609,17031842600,170318426002016,41.8209574940,-87.6537783218
SUPER JIM'S,37540,4500,B,5147 W DIVISION ST,60651,17031251100,170312511004002,41.9021472222,-87.7552393884
SUPERMARKET & TAQUERIA CARO,2014104,4524,B,4937 W 47TH ST,60638,17031560300,170315603001003,41.8074608778,-87.7470605710
SUPER MAS MARKET,1997806,32000,A,1422 W 47TH ST,60609,17031842600,170318426002060,41.8087654583,-87.6611701084
SUPERMERCADO ALEX,1772307,9375,B,4134 W 31ST ST,60623,17031301803,170313018032019,41.8369472381,-87.7281423632
SUPERMERCADO CHAPALA,32236,10001,A,7117 N CLARK ST,60626,17031010702,170310107024002,42.0119757995,-87.6743840578
SUPERMERCADO EL CUBANO INC,57265,2750,B,4939 S ASHLAND AVE,60609,17031611200,170316112002009,41.8037823230,-87.6646953279
SUPERMERCADO EL GUERO #10 INC,39978,10001,A,4023 S ARCHER AVE,60632,17031580600,170315806002005,41.8205830407,-87.6934261660
SUPERMERCADO EL GUERO NO. 8,20973,14000,A,2101 W CERMAK RD,60608,17031841300,170318413001000,41.8520256918,-87.6784122433
SUPER MERCADO EL GUERRO,7546,9375,B,1701 W 47TH ST,60609,17031611300,170316113003000,41.8084712383,-87.6674545133
SUPERMERCADO EL MEXICANO,1840895,4387,B,6701 N CLARK ST,60626,17031830600,170318306002009,42.0035849743,-87.6723519319
SUPERMERCADO GELA'S,67273,3125,B,2701 S LAWNDALE AVE,60623,17031301701,170313017012003,41.8424245295,-87.7170303155
SUPERMERCADO GUADALAJARA #2,3991,6000,B,2300 S KEDZIE AVE,60623,17031300800,170313008001012,41.8498575327,-87.7053434771
SUPERMERCADO GUERRERO,2042000,3800,B,3100 W CERMAK RD,60623,17031841700,170318417001009,41.8519083675,-87.7028759890
SUPER MERCADO LA CHIQUITA,6054,9500,B,3555 W 26TH ST,60623,17031301600,170313016001005,41.8442791237,-87.7145537663
SUPERMERCADO LA CHIQUTIA # 4,49303,10001,A,2623 S PULASKI RD,60623,17031301701,170313017013005,41.8435348913,-87.7243821794
SUPERMERCADO LA VILLA,1800261,9000,B,5020 W FULLERTON AVE,60639,17031190800,170311908003018,41.9242727136,-87.7521150377
Supermercado Santos,1091886,4000,B,4045 W 31ST ST,60623,17031830500,170318305001001,41.8367499608,-87.7261326568
SUPERMERCADO TEPECOA GUERRERO,1493584,3500,B,3629 W 63RD ST,60629,17031650302,170316503021002,41.7786847162,-87.7142516633
"SWEQI FOOD MART, INC.",2055024,2600,B,4100 W NORTH AVE,60639,17031230500,170312306001001,41.9099608832,-87.7288749604
"SZYMANSKI BROS, INC",18082,3000,B,6016 W IRVING RD,60634,17031150502,170311505022015,41.9531497374,-87.7775174877
TAI NAM CORPORATION,34508,10001,A,4925 N BROADWAY,60640,17031031200,170310312002004,41.9722135570,-87.6596091001
TAI WAH GROCERY,28038,3200,B,2226 S WENTWORTH AVE,60616,17031841100,170318411004018,41.8521271977,-87.6321439957
THE CELLAR,1574603,5000,B,3106 N HARLEM AVE,60634,17031170900,170311709001018,41.9366131328,-87.8068475211
THE FISH KEG INC,4908,4000,B,2233 W HOWARD ST,60645,17031020100,170310201002001,42.0193947424,-87.6860204976
THE MARKET PLACE FOODSTORE,10794,16900,A,521 W DIVERSEY PKWY,60614,17031070102,170310701022000,41.9327439571,-87.6422188452
THE NEIGHBORHOOD STORE,47617,4200,B,8313 S RACINE AVE,60620,17031711000,170317110001007,41.7427877337,-87.6533842508
THE PRODUCE CENTER,44723,12000,A,5820 N MILWAUKEE AVE,60646,17031100100,170311001002047,41.9872696368,-87.7785157048
The Unit,2021618,3500,B,2523 E 75TH ST,60649,17031431302,170314313022003,41.7589223174,-87.5628760391
THE WAREHOUSE,1843355,6000,B,538 W 119TH ST,60628,17031530200,170315302003018,41.6779860017,-87.6362008551
THREE BROTHER,6321,10001,A,900 N FRANCISCO AVE,60622,17031242700,170312427001004,41.8981068159,-87.6993783779
THREE R FOOD,1943396,3000,B,2712 W MONTROSE AVE,60618,17031140800,170311408002016,41.9613709450,-87.6966693474
"THREE ROOSTERS, INC.",1980803,4830,B,12247 S HALSTED ST,60628,17031530501,170315305012020,41.6709717654,-87.6415330496
Three Stars Liquors,1488855,4600,B,310 N KOSTNER AVE,60624,17031260400,170312604001012,41.8858229904,-87.7357878114
THRIFTY FOOD,1045545,4000,B,928 W WILSON AVE,60640,17031031501,170310315013003,41.9655577007,-87.6535592790
TIERRA CALIENTE MARKET,1769425,3125,B,1402 N ASHLAND AVE,60622,17031241500,170312415002014,41.9071018181,-87.6677396553
"TONY'S FINER FOODS ENTERPRISES, INC.",1717529,31000,A,4137 N ELSTON AVE,60618,17031160400,170311604001027,41.9561262015,-87.7224828263
"TONY'S FINER FOODS ENTERPRISES, INC.",1717532,33000,A,4608 W BELMONT AVE,60641,17031151002,170311510024000,41.9389938243,-87.7426989895
"TONY'S FINER FOODS ENTERPRISES, INC.",1717867,21000,A,3607 W FULLERTON AVE,60647,17031220902,170312209022000,41.9244900940,-87.7172881310
"TONY'S FINER FOODS ENTERPRISES, INC.",1717568,35000,A,2500 N CENTRAL AVE,60639,17031190602,170311906022019,41.9258928802,-87.7662048258
TRADER JOE'S,1991799,15000,A,3745 N LINCOLN AVE,60613,17031050600,170310506002002,41.9499611711,-87.6756711293
TRADER JOE'S EAST,1592120,10615,A,44 E ONTARIO ST,60611,17031081500,170310815002008,41.8934080204,-87.6264377426
TRADER JOE'S EAST,1277005,11600,A,1840 N CLYBOURN AVE,60614,17031832600,170318326002019,41.9144237141,-87.6546278430
TRATTORIA ISABELLA,1842843,3365,B,217 N JEFFERSON ST,60661,17031280100,170312801001026,41.8862936679,-87.6426439206
TREASURE ISLAND FOODS,1311,10001,A,3460 N BROADWAY,60657,17031062000,170310620002000,41.9448282656,-87.6458934884
TREASURE ISLAND FOODS,1319,10001,A,680 N LAKE SHORE DR,60611,17031081401,170310814012011,41.8947983703,-87.6158666457
TREASURE ISLAND FOODS,1315,10001,A,2121 N CLYBOURN AVE,60614,17031832500,170318325002021,41.9198996840,-87.6618055364
TREASURE ISLAND FOODS,1307,10001,A,1639 N WELLS ST,60614,17031071500,170310715005003,41.9123117952,-87.6345988555
TREASURE ISLAND FOODS INC,1303,10001,A,75 W ELM ST,60610,17031081000,170310810001000,41.9030261368,-87.6313487722
TWO BLUE FOODS INC,66710,3000,B,702 E 100TH PL,60628,17031500100,170315001004015,41.7124037870,-87.6051275894
T & Z MEAT,1974575,3000,B,3021 N CICERO AVE,60641,17031190100,170311901001017,41.9358159257,-87.7466186972
ULTRA FOODS,1741082,87600,A,3250 W 87TH ST,60652,17031700402,170317004023025,41.7352740895,-87.7035112835
VIET HOA PLAZA,10540,6174,B,1051 W ARGYLE ST,60640,17031031200,170310312002000,41.9731740098,-87.6569923349
WALGREENS #05034,18768,,A,6315 S KEDZIE AVE,60629,17031660600,170317000000000,41.77842134,-87.70297606
WALGREENS # 05192,1144217,,A,2924 E 92ND ST,60617,17031461000,170315000000000,41.72833654,-87.55286024
WALGREENS # 06297,1248924,,A,6016 W 63RD ST,60638,17031640300,170316000000000,41.77795816,-87.7722942
WALGREENS #11410,1959845,,A,1627 N PULASKI RD,60639,17031230400,170312000000000,41.91071448,-87.72621042
WALGREENS #162,18419,,A,1554 E 55TH ST,60615,17031410800,170314000000000,41.79529732,-87.58782256
WALGREENS #2073,18619,,A,5401 S WENTWORTH AVE,60609,17031835600,170318000000000,41.79623488,-87.63040492
WALGREENS #226,18468,,A,4005 W 26TH ST,60623,17031301802,170313000000000,41.84414469,-87.72477825
WALGREENS #232,18449,,A,3405 S DR MARTIN LUTHER KING JR DR,60616,17031351000,170314000000000,41.8326245,-87.6168411
WALGREENS #2923,18551,,A,6330 S DR MARTIN LUTHER KING JR DR,60637,17031842500,170318000000000,41.77929761,-87.61574988
WALLY'S INTERNATIONAL MARKET,32288,10001,A,3256 N MILWAUKEE AVE,60618,17031831100,170318311003024,41.9401778125,-87.7258584348
WALLY'S MARKET INC,72825,33000,A,6601 W IRVING PARK RD,60634,17031170300,170311703001003,41.9527216579,-87.7913622126
WALMART,,,A,10900 S DOTY AVE W,60628,17031500200,170315000000000,41.69631368,-87.59663224
WALMART,2164075,,A,1424 W 47TH ST,60609,17031842600,170318000000000,41.80876829,-87.66098821
WASHINGTON GROCERY,6249,4200,B,4139 W FIFTH AVE,60624,17031261000,170312610002013,41.8718636117,-87.7290573726
"WAY LOW DISCOUNT FOOD, INC.",41036,2500,B,1551 S KEDZIE AVE,60623,17031843100,170318431001029,41.8598459614,-87.7053385540
WEST HAVEN MARKET & GRILL,17558,3200,B,2132 W WASHINGTON BLVD,60612,17031837800,170318378002019,41.8831944724,-87.6804664902
WEST LAWN FOODS,1591726,17000,A,5838 S PULASKI RD,60629,17031620300,170316203002019,41.7866084095,-87.7231300289
WHOLE FOODS MARKET,54059,4501,B,3300 N ASHLAND AVE,60657,17031062500,170310625001000,41.9415658578,-87.6688604029
WHOLE FOODS MARKET,1678043,11310,A,1101 S CANAL ST,60607,17031841900,170318419002074,41.8688897111,-87.6390989281
WHOLE FOODS MARKET,1678035,6335,B,6020 N CICERO AVE,60646,17031120200,170311202004001,41.9904947718,-87.7484774142
WHOLE FOODS MARKET,1933690,74883,A,1550 N KINGSBURY ST,60642,17031842200,170318422001017,41.9093987878,-87.6530506979
WHOLE FOODS MARKET,76395,30591,A,30 W HURON ST,60610,17031081600,170310816002002,41.8949686732,-87.6293991787
WHOLE FOODS MARKET,1678048,19740,A,3640 N HALSTED ST,60613,17031061000,170310610001009,41.9485198030,-87.6496701249
WILLIAM'S PRODUCE,2079521,6375,B,6309 W GRAND AVE,60639,17031191301,170311913013002,41.9218942299,-87.7833975200
WINDY CITY INC,24289,4225,B,324 S CICERO AVE,60644,17031252202,170312522025003,41.8759443554,-87.7452502275
W K R B FOOD & LIQUOR,25165,4340,B,9361 S COTTAGE GROVE AVE,60619,17031440800,170314408002017,41.7238602893,-87.6043647208
WORLD FRESH MARKET,1492163,5500,B,2434 W DEVON AVE,60659,17031020602,170310206022013,41.9978179260,-87.6912518856
W & R FOOD & LIQUOR INC,19348,2700,B,1717 E 79TH ST,60649,17031460500,170314605007008,41.7514187003,-87.5822058165
ZEE DOLLAR AND FOOD,2014197,3000,B,375 E 75TH ST,60619,17031691300,170316913001000,41.7582933150,-87.6153541087
ZIAD CERTIFIED FOODS,9046,2500,B,513 E 47TH ST,60653,17031381200,170313812002015,41.8093228701,-87.6133355212
Z & S FOOD & LIQUOR,7382,6000,B,1351 W 87TH ST,60620,17031711400,170317114001000,41.7357569772,-87.6578282347
